[{"OBJECT_NAME":"STARLINK-31261","OBJECT_ID":"2024-041L","EPOCH":"2026-03-09T01:29:07.506816","MEAN_MOTION":15.27591407,"ECCENTRICITY":0.0001959,"INCLINATION":43.0063,"RA_OF_ASC_NODE":314.4049,"ARG_OF_PERICENTER":279.6458,"MEAN_ANOMALY":80.4173,"EPHEMERIS_TYPE":0,"CLASSIFICATION_TYPE":"U","NORAD_CAT_ID":59084,"ELEMENT_SET_NO":999,"REV_AT_EPOCH":11422,"BSTAR":-0.0001571178,"MEAN_MOTION_DOT":-4.585e-5,"MEAN_MOTION_DDOT":0},{"OBJECT_NAME":"TRANSPORTER-1 OBJECT Z","OBJECT_ID":"2021-006Z","EPOCH":"2026-03-09T22:55:57.522432","MEAN_MOTION":15.30965056,"ECCENTRICITY":0.00100878,"INCLINATION":97.2377,"RA_OF_ASC_NODE":113.4736,"ARG_OF_PERICENTER":179.6869,"MEAN_ANOMALY":180.438,"EPHEMERIS_TYPE":0,"CLASSIFICATION_TYPE":"U","NORAD_CAT_ID":47436,"ELEMENT_SET_NO":999,"REV_AT_EPOCH":28420,"BSTAR":0.00024088983,"MEAN_MOTION_DOT":7.143e-5,"MEAN_MOTION_DDOT":0}]
